COSMOS 2433 (720)       
1 32275U 07052A   23049.17112863 -.00000069  00000+0  00000+0 0  9994
2 32275  66.0615 356.5140 0004442 275.9122 211.3980  2.13104204119205
COSMOS 2432 (719)       
1 32276U 07052B   23049.77941532 -.00000071  00000+0  00000+0 0  9997
2 32276  66.0755 356.5986 0012162 323.4515 218.1278  2.13103476119218
COSMOS 2434 (721)       
1 32393U 07065A   23048.90906296  .00000089  00000+0  00000+0 0  9991
2 32393  64.3520 233.0559 0005179  74.6321 102.0547  2.13103144117900
COSMOS 2436 (723)       
1 32395U 07065C   23049.13976016  .00000085  00000+0  00000+0 0  9992
2 32395  64.3606 233.1078 0016998   8.8734 120.4514  2.13102905117847
COSMOS 2456 (730)       
1 36111U 09070A   23048.46569427  .00000017  00000+0  00000+0 0  9994
2 36111  64.4226 112.6386 0004221 297.4755  61.1561  2.13099096102555
COSMOS 2457 (733)       
1 36112U 09070B   23049.89055238  .00000026  00000+0  00000+0 0  9993
2 36112  64.4046 112.4599 0005071 179.4680 321.5010  2.13101371102596
COSMOS 2460 (732)       
1 36402U 10007C   23049.50465966 -.00000071  00000+0  00000+0 0  9999
2 36402  65.9283 355.2523 0002510 320.8002 230.2731  2.13106450100931
COSMOS 2476 (744)       
1 37867U 11064A   23049.52252027  .00000024  00000+0  00000+0 0  9990
2 37867  64.7069 114.0532 0023164 236.5791 120.4350  2.13101875 87929
COSMOS 2477 (745)       
1 37868U 11064B   23049.29007595  .00000022  00000+0  00000+0 0  9991
2 37868  64.7150 114.1288 0020355 237.3608 119.3063  2.13101676 87876
COSMOS 2475 (743)       
1 37869U 11064C   23048.52513787  .00000017  00000+0  00000+0 0  9996
2 37869  64.7215 114.1651 0024575 253.9417 194.1366  2.13101797 87874
COSMOS 2485 (747)       
1 39155U 13019A   23048.61970028  .00000017  00000+0  00000+0 0  9993
2 39155  64.8681 114.5645 0023626 232.6564 196.1171  2.13101854 76386
COSMOS 2492 (754)       
1 39620U 14012A   23049.09910637 -.00000070  00000+0  00000+0 0  9997
2 39620  65.8136 354.9120 0015137 320.4563 150.4142  2.13103226 69344
COSMOS 2500 (755)       
1 40001U 14032A   23048.42978243 -.00000068  00000+0  00000+0 0  9994
2 40001  65.7521 354.7776 0005791 224.0295 311.3371  2.13102607 67541
COSMOS 2501 (702K)      
1 40315U 14075A   23049.79278627  .00000073  00000+0  00000+0 0  9994
2 40315  63.6554 232.5539 0017071 203.9528 106.2332  2.13101373 63971
COSMOS 2514 (751)       
1 41330U 16008A   23049.83796007 -.00000072  00000+0  00000+0 0  9992
2 41330  65.5507 354.3608 0009306 225.0345 134.8868  2.13102523 54746
COSMOS 2516 (753)       
1 41554U 16032A   23049.01964136  .00000086  00000+0  00000+0 0  9991
2 41554  63.8840 232.9251 0014026 211.7868 148.1443  2.13106363 52333
COSMOS 2522 (752)       
1 42939U 17055A   23049.44450337  .00000080  00000+0  00000+0 0  9999
2 42939  64.1171 233.3781 0004943 236.6445 301.9764  2.13101980 42096
COSMOS 2527 (756)       
1 43508U 18053A   23049.41438360  .00000023  00000+0  00000+0 0  9997
2 43508  65.0303 114.5893 0009030 230.4320 317.0467  2.13102577 36382
COSMOS 2529 (757)       
1 43687U 18086A   23049.64805566  .00000078  00000+0  00000+0 0  9992
2 43687  64.3328 233.7544 0006776 271.7985  18.4544  2.13102086 33408
COSMOS 2534 (758)       
1 44299U 19030A   23048.67490990  .00000093  00000+0  00000+0 0  9992
2 44299  64.4051 233.6944 0009928 296.0419 101.9962  2.13102005 29036
COSMOS 2544 (759)       
1 44850U 19088A   23049.58504220  .00000025  00000+0  16595+1 0  9993
2 44850  65.0157 114.4312 0013713 256.6653 104.9900  2.13102310 24823
COSMOS 2545 (760)       
1 45358U 20018A   23049.72885339 -.00000073  00000+0  00000+0 0  9998
2 45358  64.8899 354.7717 0010166 260.2851  60.8887  2.13102736 22773
COSMOS 2547 (705K)      
1 46805U 20075A   23048.30010647  .00000099  00000+0  00000+0 0  9991
2 46805  64.6305 233.2042 0005115 240.7329 278.2863  2.13103081 17995
COSMOS 2557 (706K)      
1 52984U 22075A   23049.18799388 -.00000071  00000+0  10000-3 0  9997
2 52984  64.8023 356.9704 0013687 285.6624  71.2528  2.13101881  4807
COSMOS 2559 (707K)      
1 54031U 22130A   23049.36907258 -.00000072  00000+0  00000+0 0  9997
2 54031  64.7702 357.0982 0006504 239.5921 301.3904  2.13101068  2791
COSMOS 2564 (761)       
1 54377U 22161A   23049.31182339  .00000084  00000+0  00000+0 0  9996
2 54377  64.7709 233.1874 0006725 209.4958 138.0639  2.13102260  1734
